1 20253U 89077A   26139.47725439 -.00000374  00000-0  00000+0 0  9999
2 20253  12.4296 351.3390 0006272  28.2258 155.1036  1.00268864260279
1 20776U 90079A   26139.74413933  .00000118  00000-0  00000+0 0  9991
2 20776  13.3492 350.0111 0002972  74.3589 114.2579  1.00272749130604
1 22787U 93056A   26139.74327265  .00000118  00000-0  00000+0 0  9995
2 22787  11.8853   3.7134 0008356   1.1264 168.7818  1.00275497118260
1 23467U 95003A   26139.44588213 -.00000027  00000-0  00000+0 0  9994
2 23467   9.7058  13.3281 0003236  35.4314 161.2548  1.00268204114663
1 23967U 96042A   26139.41445494 -.00000282  00000-0  00000+0 0  9996
2 23967  11.0899  17.2419 0005416 100.5743 229.2883  1.00223877109191
1 25544U 98067A   26139.81053376  .00005239  00000-0  10220-3 0  9991
2 25544  51.6327  80.5761 0007549  76.5627 283.6202 15.49275597567354
1 25967U 99063A   26138.07475071 -.00000189  00000-0  00000-0 0  9996
2 25967   9.8420  27.3666 0002477 337.2056 235.2412  1.00268506 97047
1 27168U 02001A   26139.84697727  .00000091  00000-0  00000+0 0  9997
2 27168  11.1472  22.0833 0099426   7.5929 171.7916  1.00277393 32674
1 27607U 02058C   26139.63078410  .00000548  00000-0  82624-4 0  9990
2 27607  64.5520 217.3330 0075613 267.7041  91.5406 14.82980190260223
1 28117U 03057A   26139.73239337 -.00000109  00000-0  00000+0 0  9992
2 28117   8.9376  33.9705 0002526  19.0332 163.5186  1.00272827 82160
1 28899U 05044A   26138.69141983 -.00000260  00000-0  00000-0 0  9999
2 28899   5.0584  43.7406 0002748  13.7227 211.3181  1.00270998 75226
1 30794U 07007B   26139.84886468 -.00000275  00000-0  00000+0 0  9994
2 30794   5.2302  74.0777 0004255 354.5925 209.6583  1.00269682 70417
1 32294U 07056B   26139.02948970  .00000139  00000-0  00000-0 0  9991
2 32294   5.1803  73.8418 0003579 343.4132 215.1753  1.00274007 67901
1 35943U 09054B   26139.86086404  .00000022  00000-0  00000+0 0  9992
2 35943   0.0590  95.2732 0003043 326.5440 188.6218  1.00271291 61028
1 36582U 10021B   26139.81144300  .00000085  00000-0  00000+0 0  9992
2 36582   0.0130 346.7558 0002531  82.4630 113.5439  1.00269376 58678
1 38098U 12011A   26139.81086559 -.00000061  00000-0  00000+0 0  9993
2 38098   0.0031  27.5230 0002053  46.5052 167.4675  1.00270240  6902
1 39034U 12075A   26139.86086404  .00000096  00000-0  00000+0 0  9995
2 39034   0.0682 345.4492 0003482  77.2849 177.4554  1.00271089 48870
1 39215U 13038A   26139.84697727  .00000130  00000-0  00000+0 0  9999
2 39215   2.9959   1.5376 0001984  63.3899 142.3288  1.00273751 43739
1 40296U 14069A   26139.27066498  .00000243  00000-0  00000+0 0  9992
2 40296  63.4452 218.1867 6658659 270.7494  19.5728  2.00589666 84655
1 40931U 15052B   25151.18580175  .00001241  00000-0  78118-4 0  9996
2 40931   6.0006  24.0987 0012733 338.8432  21.1169 14.78805930523159
1 43678U 18084H   26139.82617252  .00001825  00000-0  15073-3 0  9998
2 43678  98.1109 334.8151 0011674 268.1677  91.8208 15.00300259411963
1 43700U 18090A   26139.84697727  .00000141  00000-0  00000+0 0  9998
2 43700   0.0147 341.8569 0001314 107.0377 119.3250  1.00270116 27398
1 43803U 18099AX  26139.11698420  .00011732  00000-0  37434-3 0  9995
2 43803  97.4142 201.8701 0005752  31.4913 328.6673 15.32643998409172
1 44453U 19046A   26138.80694652 -.00000046  00000-0  00000-0 0  9991
2 44453  63.1014  54.5493 7067873 274.7765  14.8001  2.00604820 49754
1 44909U 19096E   26139.85978775  .00000018  00000-0  31578-4 0  9995
2 44909  82.5232 358.5322 0216899 210.3799 148.4586 12.79748339298721
1 45254U 20015A   26138.55701514 -.00000090  00000-0  00000+0 0  9995
2 45254  65.5233 322.1165 6867226 278.4230  14.9617  2.00601994 45692
1 52145U 22030A   26139.55811823  .00000212  00000-0  00000+0 0  9992
2 52145  62.6768 143.8677 6776223 272.8791  17.6960  2.00616075 30457
1 57167U 23091B   26010.59363612  .08733485  25619-5  12458-2 0  9993
2 57167  97.4978  91.1570 0009532 282.8011  77.2220 16.34765267141469
1 59112U 24043Q   26139.87120132  .00029178  00000-0  41181-3 0  9991
2 59112  97.5515 288.5843 0005783 301.6628  58.4062 15.56528561123486
1 67291U 25313AV  26139.42535272  .00008800  00000-0  35012-3 0  9990
2 67291  97.3939 214.9521 0010620  98.4660 261.7783 15.25453733 21604
1 26635U 00080A   21013.46269075 0.00000000  00000-0  00000-0 0    09
2 26635   9.2857  29.8038 0014383 186.3086 173.6859  1.00273100    09
1 34810U 09020A   26118.58802400 0.00000000  00000-0  00000-0 0    05
2 34810   3.0809  80.0043 0003222 250.4250 109.5484  1.00270000    01
1 40614U 15022B   25359.93496764 0.00000000  00000-0  00000-0 0    00
2 40614   0.0160 108.2839 0003453 352.8976   7.0980  1.00270000    04
